NORAD_CAT_ID,OBJECT_NAME,OBJECT_TYPE,EPOCH,MEAN_MOTION,ECCENTRICITY,INCLINATION,RA_OF_ASC_NODE,ARG_OF_PERICENTER,MEAN_ANOMALY,BSTAR,MEAN_MOTION_DOT,MEAN_MOTION_DDOT,TLE_LINE0,TLE_LINE1,TLE_LINE2,SEMIMAJOR_AXIS,PERIOD,APOGEE,PERIGEE,DECAYED
53026.0,STARLINK-4119,PAYLOAD,2022-10-29 12:00:00,15.08824096,0.0001591,53.2152,193.1747,49.9972,264.9838,0.003052,0.00048599,0.0,0 STARLINK-4119,1 53026U 22076AS  22302.50001157  .00048599  00000-0  30520-2 0  9998,2 53026  53.2152 193.1747 0001591  49.9972 264.9838 15.08824096  1301,6917.929,95.439,540.895,538.693,0.0
53026.0,STARLINK-4119,PAYLOAD,2022-10-29 22:00:01,15.08874031,0.0001709,53.2152,191.3052,47.5815,11.9614,-0.0027737,-0.00044202,0.0,0 STARLINK-4119,1 53026U 22076AS  22302.91668981 -.00044202  00000-0 -27737-2 0  9992,2 53026  53.2152 191.3052 0001709  47.5815  11.9614 15.08874031  1307,6917.776,95.435,540.8240000000002,538.4590000000002,0.0
53026.0,STARLINK-4119,PAYLOAD,2022-10-30 00:00:00,15.08852213,0.0001751999999999,53.2152,190.9315,46.0867,106.3049,-0.00048555,-8.01e-05,0.0,0 STARLINK-4119,1 53026U 22076AS  22303.00001157 -.00008010  00000-0 -48555-3 0  9998,2 53026  53.2152 190.9315 0001752  46.0867 106.3049 15.08852213 18276,6917.843000000003,95.437,540.92,538.496,0.0
53026.0,STARLINK-4119,PAYLOAD,2022-10-30 14:00:01,15.0880108,0.0001686999999999,53.2154,188.311,53.5926,29.0805,0.0037260999999999,0.0005945,0.0,0 STARLINK-4119,1 53026U 22076AS  22303.58334491  .00059450  00000-0  37261-2 0  9994,2 53026  53.2154 188.3110 0001687  53.5926  29.0805 15.08801080  1301,6917.999,95.44,541.031,538.697,0.0
53026.0,STARLINK-4119,PAYLOAD,2022-10-30 22:00:01,15.08844508,0.0001804,53.2155,186.816,49.7975,44.5116,-0.0027447,-0.00043711,0.0,0 STARLINK-4119,1 53026U 22076AS  22303.91668981 -.00043711  00000-0 -27447-2 0  9995,2 53026  53.2155 186.8160 0001804  49.7975  44.5116 15.08844508  1301,6917.8669999999975,95.437,540.98,538.484,0.0
53026.0,STARLINK-4119,PAYLOAD,2022-10-31 14:00:01,15.088286300000002,0.0001679,53.2156,183.8219,54.2202,63.1902,0.00081519,0.00012706,0.0,0 STARLINK-4119,1 53026U 22076AS  22304.58334491  .00012706  00000-0  81519-3 0  9994,2 53026  53.2156 183.8219 0001679  54.2202  63.1902 15.08828630  1306,6917.915,95.438,540.942,538.619,0.0
53026.0,STARLINK-4119,PAYLOAD,2022-10-31 22:00:01,15.08827403,0.0001865,53.2157,182.327,52.1172,76.9486,-0.00022757,-3.907e-05,0.0,0 STARLINK-4119,1 53026U 22076AS  22304.91668981 -.00003907  00000-0 -22757-3 0  9999,2 53026  53.2157 182.3270 0001865  52.1172  76.9486 15.08827403  1304,6917.919,95.438,541.0740000000002,538.494,0.0
53026.0,STARLINK-4119,PAYLOAD,2022-11-01 00:00:02,15.08816195,0.0001916,53.2157,181.9532,51.1418,170.8212,0.0015857999999999,0.00025024,0.0,0 STARLINK-4119,1 53026U 22076AS  22305.00002315  .00025024  00000-0  15858-2 0  9998,2 53026  53.2157 181.9532 0001916  51.1418 170.8212 15.08816195 18573,6917.953,95.439,541.144,538.493,0.0
53026.0,STARLINK-4119,PAYLOAD,2022-11-01 14:00:01,15.08800526,0.0001643,53.2157,179.3328,55.8187,96.357,0.0030736,0.00048915,0.0,0 STARLINK-4119,1 53026U 22076AS  22305.58334491  .00048915  00000-0  30736-2 0  9990,2 53026  53.2157 179.3328 0001643  55.8187  96.3570 15.08800526 18668,6918.001,95.44,541.003,538.729,0.0
53026.0,STARLINK-4119,PAYLOAD,2022-11-01 22:00:00,15.08832755,0.0001799,53.2156,177.8382,51.6742,112.0711,-0.00012359,-2.254e-05,0.0,0 STARLINK-4119,1 53026U 22076AS  22305.91667824 -.00002254  00000-0 -12359-3 0  9996,2 53026  53.2156 177.8382 0001799  51.6742 112.0711 15.08832755  1308,6917.903,95.438,541.012,538.523,0.0
53026.0,STARLINK-4119,PAYLOAD,2022-11-02 06:00:00,15.08851948,0.0001774999999999,53.2156,176.3429,51.2173,124.1083,-0.00051412,-8.464e-05,0.0,0 STARLINK-4119,1 53026U 22076AS  22306.25001157 -.00008464  00000-0 -51412-3 0  9997,2 53026  53.2156 176.3429 0001775  51.2173 124.1083 15.08851948 18761,6917.844,95.437,540.937,538.481,0.0
53026.0,STARLINK-4119,PAYLOAD,2022-11-02 14:00:01,15.08861793,0.0001568,53.2165,174.8473,62.3648,124.5661,-0.0055458999999999,-0.00087532,0.0,0 STARLINK-4119,1 53026U 22076AS  22306.58334491 -.00087532  00000-0 -55459-2 0  9990,2 53026  53.2165 174.8473 0001568  62.3648 124.5661 15.08861793  1300,6917.814,95.436,540.763,538.594,0.0
53026.0,STARLINK-4119,PAYLOAD,2022-11-02 18:00:02,15.08780183,0.0001561,53.2171,174.1008,64.6952,308.1116,0.0043051,0.00068784,0.0,0 STARLINK-4119,1 53026U 22076AS  22306.75002315  .00068784  00000-0  43051-2 0  9997,2 53026  53.2171 174.1008 0001561  64.6952 308.1116 15.08780183  1308,6918.063,95.441,541.008,538.8480000000002,0.0
53026.0,STARLINK-4119,PAYLOAD,2022-11-03 00:18:13,15.08842537,0.0001874,53.2158,172.9171,53.3633,306.7531,0.00029457,4.403e-05,0.0,0 STARLINK-4119,1 53026U 22076AS  22307.01265091  .00004403  00000-0  29457-3 0  9992,2 53026  53.2158 172.9171 0001874  53.3633 306.7531 15.08842537 18404,6917.873000000001,95.437,541.034,538.441,0.0
53026.0,STARLINK-4119,PAYLOAD,2022-11-03 16:12:04,15.08830361,0.000169,53.2152,169.9442,59.1478,300.968,0.00087191,0.00013612,0.0,0 STARLINK-4119,1 53026U 22076AS  22307.67505456  .00013612  00000-0  87191-3 0  9997,2 53026  53.2152 169.9442 0001690  59.1478 300.9680 15.08830361 18977,6917.91,95.438,540.944,538.606,0.0
53026.0,STARLINK-4119,PAYLOAD,2022-11-04 01:44:22,15.08851907,0.000193,53.2153,168.16,53.1352,306.9817,0.00026598,3.949e-05,0.0,0 STARLINK-4119,1 53026U 22076AS  22308.07248508  .00003949  00000-0  26598-3 0  9990,2 53026  53.2153 168.1600 0001930  53.1352 306.9817 15.08851907 19032,6917.844,95.437,541.044,538.374,0.0
53026.0,STARLINK-4119,PAYLOAD,2022-11-04 08:05:55,15.08853149,0.0001925,53.2154,166.9703,53.3172,306.7996,0.00025766,3.816e-05,0.0,0 STARLINK-4119,1 53026U 22076AS  22308.33744315  .00003816  00000-0  25766-3 0  9995,2 53026  53.2154 166.9703 0001925  53.3172 306.7996 15.08853149 18607,6917.84,95.437,541.0369999999998,538.374,0.0
53026.0,STARLINK-4119,PAYLOAD,2022-11-04 20:49:00,15.08838916,0.0001845,53.2163,164.5922,48.0306,312.0843,-2.3101e-05,-6.56e-06,0.0,0 STARLINK-4119,1 53026U 22076AS  22308.86736751 -.00000656  00000-0 -23101-4 0  9991,2 53026  53.2163 164.5922 0001845  48.0306 312.0843 15.08838916 19152,6917.884,95.438,541.025,538.472,0.0
53026.0,STARLINK-4119,PAYLOAD,2022-11-05 03:10:33,15.08829872,0.0002466,53.2165,163.4012,47.8307,312.2895,0.00012629,1.722e-05,0.0,0 STARLINK-4119,1 53026U 22076AS  22309.13233440  .00001722  00000-0  12629-3 0  9994,2 53026  53.2165 163.4012 0002466  47.8307 312.2895 15.08829872 18722,6917.911,95.438,541.482,538.07,0.0
53026.0,STARLINK-4119,PAYLOAD,2022-11-05 20:39:49,15.08821868,0.0001852,53.2166,160.1303,53.9577,306.1587,-0.00022414,-3.852e-05,0.0,0 STARLINK-4119,1 53026U 22076AS  22309.86099184 -.00003852  00000-0 -22414-3 0  9990,2 53026  53.2166 160.1303 0001852  53.9577 306.1587 15.08821868 19307,6917.936,95.439,541.082,538.52,0.0
53026.0,STARLINK-4119,PAYLOAD,2022-11-05 23:50:36,15.08821533,0.0001849,53.2166,159.5356,53.9108,306.2055,-0.00022158,-3.811e-05,0.0,0 STARLINK-4119,1 53026U 22076AS  22309.99347335 -.00003811  00000-0 -22158-3 0  9998,2 53026  53.2166 159.5356 0001849  53.9108 306.2055 15.08821533 18852,6917.937,95.439,541.081,538.523,0.0
53026.0,STARLINK-4119,PAYLOAD,2022-11-06 23:41:23,15.08818201,0.0001829,53.2164,155.0751,52.896,307.2199,3.1876e-06,-2.37e-06,0.0,0 STARLINK-4119,1 53026U 22076AS  22310.98708005 -.00000237  00000-0  31876-5 0  9991,2 53026  53.2164 155.0751 0001829  52.8960 307.2199 15.08818201 19479,6917.946999999999,95.439,541.077,538.547,0.0
53026.0,STARLINK-4119,PAYLOAD,2022-11-07 13:59:52,15.08825918,0.0001874,53.2165,152.3989,51.1151,309.0008,-3.5503e-06,-3.45e-06,0.0,0 STARLINK-4119,1 53026U 22076AS  22311.58324309 -.00000345  00000-0 -35503-5 0  9991,2 53026  53.2165 152.3989 0001874  51.1151 309.0008 15.08825918 19569,6917.9230000000025,95.438,541.085,538.492,0.0
53026.0,STARLINK-4119,PAYLOAD,2022-11-08 05:53:43,15.08829252,0.0001898,53.2167,149.4255,54.3212,305.7956,0.00022924,3.361e-05,0.0,0 STARLINK-4119,1 53026U 22076AS  22312.24564167  .00003361  00000-0  22924-3 0  9993,2 53026  53.2167 149.4255 0001898  54.3212 305.7956 15.08829252 19664,6917.913000000001,95.438,541.091,538.465,0.0
53026.0,STARLINK-4119,PAYLOAD,2022-11-08 10:39:52,15.08834351,0.0001889,53.2165,148.5331,53.9156,306.2011,0.00022363,3.272e-05,0.0,0 STARLINK-4119,1 53026U 22076AS  22312.44435999  .00003272  00000-0  22363-3 0  9993,2 53026  53.2165 148.5331 0001889  53.9156 306.2011 15.08834351 19225,6917.898,95.438,541.069,538.456,0.0
53026.0,STARLINK-4119,PAYLOAD,2022-11-09 00:58:20,15.08848624,0.0001938,53.2165,145.8569,55.3131,304.8043,0.00026198,3.885e-05,0.0,0 STARLINK-4119,1 53026U 22076AS  22313.04051126  .00003885  00000-0  26198-3 0  9996,2 53026  53.2165 145.8569 0001938  55.3131 304.8043 15.08848624 19780,6917.854,95.437,541.06,538.378,0.0
53026.0,STARLINK-4119,PAYLOAD,2022-11-09 20:02:59,15.08832604,0.000179,53.2165,142.2884,46.9873,313.1269,-2.6396e-05,-7.08e-06,0.0,0 STARLINK-4119,1 53026U 22076AS  22313.83540791 -.00000708  00000-0 -26396-4 0  9998,2 53026  53.2165 142.2884 0001790  46.9873 313.1269 15.08832604 19904,6917.903,95.438,541.006,538.53,0.0
53026.0,STARLINK-4119,PAYLOAD,2022-11-10 11:56:50,15.08837009,0.0001845,53.2169,139.3145,53.6903,306.426,-4.3279e-05,-9.77e-06,0.0,0 STARLINK-4119,1 53026U 22076AS  22314.49780660 -.00000977  00000-0 -43279-4 0  9999,2 53026  53.2169 139.3145 0001845  53.6903 306.4260 15.08837009 19534,6917.89,95.438,541.031,538.4780000000002,0.0
53026.0,STARLINK-4119,PAYLOAD,2022-11-10 18:18:22,15.08845885,0.0001745,53.2168,138.1252,62.3988,297.7182,-0.00011615,-2.136e-05,0.0,0 STARLINK-4119,1 53026U 22076AS  22314.76276136 -.00002136  00000-0 -11615-3 0  9994,2 53026  53.2168 138.1252 0001745  62.3988 297.7182 15.08845885 20042,6917.861999999999,95.437,540.935,538.52,0.0
